OPTICUBE 04             
1 41851U 16067D   19070.47353405  .00000526  00000-0  51234-4 0  9999
2 41851  97.9134 166.9169 0008686   5.8898 354.2423 14.96767100127079
AEROCUBE 8D             
1 41852U 16067E   19070.53633109  .00000504  00000-0  49461-4 0  9994
2 41852  97.9145 166.8067 0009386   4.4061 355.7241 14.96650964127065
AEROCUBE 8C             
1 41853U 16067F   19070.49001739  .00000418  00000-0  41950-4 0  9997
2 41853  97.9151 166.7041 0010021   6.6689 353.4664 14.96620893127053
PROMETHEUS 2-1          
1 41854U 16067G   19070.20325895  .00000635  00000-0  60747-4 0  9995
2 41854  97.9151 166.5063 0009991   5.6939 354.4394 14.96799221127016
PROMETHEUS 2-3          
1 41855U 16067H   19070.54015262  .00000779  00000-0  73287-4 0  9999
2 41855  97.9155 166.8592 0010183   5.2312 354.9014 14.96803851127061
INS-1B                  
1 41954U 17008G   19070.60125328  .00001024  00000-0  45588-4 0  9994
2 41954  97.4115 136.9013 0010633 128.5061 231.7131 15.23674379114710
BGUSAT                  
1 41999U 17008BD  19070.32692202  .00001729  00000-0  70725-4 0  9995
2 41999  97.4175 138.5962 0009389 142.1262 218.0638 15.25664212114141
DIDO-2                  
1 42000U 17008BE  19070.39255646  .00000840  00000-0  37904-4 0  9998
2 42000  97.4129 137.2260 0009507 145.0279 215.1585 15.23704188114080
PEASSS                  
1 42015U 17008BV  19070.15483204  .00001171  00000-0  50367-4 0  9997
2 42015  97.4133 137.7976 0007268 148.4191 211.7484 15.24613386114587
AL-FARABI 1             
1 42016U 17008BW  19070.19284051  .00001229  00000-0  51858-4 0  9991
2 42016  97.4145 138.2668 0007171 147.9537 212.2139 15.25179196114733
NAYIF-1 (EO-88)         
1 42017U 17008BX  19070.18241218  .00001247  00000-0  52534-4 0  9991
2 42017  97.4142 138.2655 0007164 148.1257 212.0416 15.25208993114757
PHOENIX                 
1 42706U 98067LP  19070.42689244  .00093179  00000-0  32940-3 0  9995
2 42706  51.6257  59.0516 0003643  92.7794 267.3628 15.88290806104069
ALTAIR PATHFINDER       
1 42711U 98067LS  19070.50860987  .00026149  00000-0  18336-3 0  9991
2 42711  51.6317  81.6614 0003833  97.0629 263.0806 15.74008383103431
SHARC                   
1 42712U 98067LT  19070.47982659  .00097306  00000-0  37435-3 0  9993
2 42712  51.6292  75.4258 0004406  75.8280 284.3214 15.86552436103753
ZA-AEROSAT              
1 42713U 98067LU  19070.40332241  .00071358  00000-0  28577-3 0  9999
2 42713  51.6319  65.0085 0003959  87.7267 272.4191 15.85847753103644
CSUNSAT1                
1 42715U 98067LW  19070.40774444  .00095748  14468-4  32455-3 0  9992
2 42715  51.6286  61.2334 0004768  95.7512 264.4037 15.89869293103697
NJUST-1                 
1 42722U 98067MB  19070.85213304  .00048858  00000-0  23849-3 0  9992
2 42722  51.6362  67.9545 0003587 118.0133 314.8168 15.81822493102713
LILACSAT-1 (LO-90)      
1 42725U 98067ME  19070.82507080  .00312048  54442-4  47892-3 0  9991
2 42725  51.6295  51.7314 0003940 105.9469 324.3592 16.03781925102835
NSIGHT                  
1 42726U 98067MF  19070.56702503  .00014797  00000-0  13924-3 0  9996
2 42726  51.6367  94.2718 0004600 141.0212 219.1117 15.67354249102251
SNUSAT-1B               
1 42727U 98067MG  19070.38090288  .00256879  39275-4  45769-3 0  9998
2 42727  51.6236  54.8088 0005851 109.6319 250.5323 16.01283061102717
SNUSAT-1                
1 42733U 98067MN  19070.79606654  .01424982  11864-4  68287-3 0  9997
2 42733  51.6190  46.1712 0004864 145.0274 215.1064 16.20593007102756
BEEAGLESAT              
1 42736U 98067MR  19070.79102609  .00112105  15834-4  34573-3 0  9993
2 42736  51.6282  57.6971 0004152 120.5007 239.6410 15.91618388102660
UCLSAT                  
1 42765U 17036A   19070.17052674  .00001268  00000-0  57706-4 0  9996
2 42765  97.3644 130.2532 0010679 212.5252 147.5328 15.22482852 95325
LITUANICASAT-2          
1 42768U 17036D   19070.41023194  .00001657  00000-0  74619-4 0  9995
2 42768  97.3674 130.0510 0014753 203.1062 156.9513 15.22368028 95202
AALTO-1                 
1 42775U 17036L   19070.33841214  .00000635  00000-0  31514-4 0  9997
2 42775  97.3633 129.3880 0013409 202.5800 157.4848 15.21160310 95105
URSA MAIOR              
1 42776U 17036M   19070.76780930  .00000660  00000-0  32530-4 0  9999
2 42776  97.3640 129.9248 0013303 200.8361 159.2334 15.21280725 95174
COMPASS 2               
1 42777U 17036N   19070.37167436  .00001285  00000-0  58319-4 0  9994
2 42777  97.3674 130.4550 0012075 203.3010 156.7681 15.22546511 95153
DIAMOND RED             
1 42783U 17036U   19070.57598840  .00000775  00000-0  36935-4 0  9993
2 42783  97.3645 130.3301 0011376 212.0102 148.0444 15.21981085 95174
PEGASUS                 
1 42784U 17036V   19070.37605471  .00000875  00000-0  41018-4 0  9990
2 42784  97.3648 130.3073 0011253 212.5088 147.5457 15.22246285 95159
DIAMOND GREEN           
1 42785U 17036W   19070.11457318  .00000982  00000-0  45993-4 0  9993
2 42785  97.3648 129.8993 0011199 214.4303 145.6209 15.21980320 95174
DIAMOND BLUE            
1 42786U 17036X   19070.11357463  .00000979  00000-0  45883-4 0  9998
2 42786  97.3648 129.8975 0011033 214.6240 145.4279 15.21980362 95175
NUDTSAT                 
1 42787U 17036Y   19070.82699134  .00001432  00000-0  63651-4 0  9999
2 42787  97.3686 131.2721 0009520 213.4618 146.6026 15.23089182 95094
SUCHAI                  
1 42788U 17036Z   19070.40874373  .00001077  00000-0  49279-4 0  9999
2 42788  97.3652 130.5740 0010856 211.3199 148.7392 15.22616433 95246
SKCUBE                  
1 42789U 17036AA  19070.15573218  .00001230  00000-0  55970-4 0  9992
2 42789  97.3649 130.2873 0010696 212.3147 147.7436 15.22536393 95124
VZLUSAT-1               
1 42790U 17036AB  19070.15703524  .00001647  00000-0  72741-4 0  9996
2 42790  97.3661 130.6192 0010351 211.3240 148.7381 15.23097989 95145
ROBUSTA-1B              
1 42792U 17036AD  19070.16297814  .00001270  00000-0  57448-4 0  9998
2 42792  97.3648 130.4170 0010252 212.8773 147.1827 15.22699099 95140
CICERO 6                
1 42793U 17036AE  19070.59367981  .00000707  00000-0  33620-4 0  9999
2 42793  97.3634 130.7003 0009459 212.3954 147.6702 15.22377084 95275
D-SAT                   
1 42794U 17036AF  19070.75684938  .00000301  00000-0  31311-4 0  9997
2 42794  97.5539 119.7396 0128184 111.1769 250.3203 14.91034728 93592
TOKI                    
1 42820U 98067MU  19070.43561070  .00104876  00000-0  34211-3 0  9999
2 42820  51.6284  64.3890 0004468  86.2780 273.8736 15.89844321 96025
MAZAALAI (NUMSAT-1)     
1 42822U 98067MW  19070.44848796  .00089672  00000-0  31902-3 0  9995
2 42822  51.6301  66.0267 0004328  89.6954 270.4547 15.88173991 95983
BRAC ONNESHA            
1 42823U 98067MX  19070.39412579  .00098561  00000-0  33525-3 0  9996
2 42823  51.6274  65.6417 0005175  96.9354 263.2240 15.89031953 95961
NIGERIAEDUSAT-1         
1 42824U 98067MY  19070.43424914  .00084158  00000-0  30427-3 0  9993
2 42824  51.6310  66.7469 0004930 101.8647 258.2911 15.87868647 95944
CORVUS BC2              
1 42846U 17042X   19070.48572174  .00000011  00000-0  63770-5 0  9993
2 42846  97.5770 328.3782 0010477  33.5378 326.6503 14.91930968 90220
CORVUS BC1              
1 42847U 17042Y   19070.51266637  .00000195  00000-0  24475-4 0  9993
2 42847  97.5771 328.4944 0010094  33.3814 326.8040 14.92030535 90221
SILU-1 (SILKROAD 1)     
1 42903U 17021F   19070.50209845  .00152632  17719-4  30162-3 0  9992
2 42903  42.7673 126.2994 0015260  58.2179  38.6034 15.99120956 92246
MIRATA                  
1 43015U 17073C   19070.62989914  .00000655  00000-0  56072-4 0  9996
2 43015  97.7183 355.7223 0257406 120.3758 242.3172 14.78731735 70652
MAKERSAT 0              
1 43016U 17073D   19070.35897510  .00000466  00000-0  41321-4 0  9998
2 43016  97.7214 355.6505 0259360 121.4872 241.1966 14.78557966 70605
ASTERIA                 
1 43020U 98067NH  19070.53825593  .00014363  00000-0  14024-3 0  9997
2 43020  51.6411 104.7185 0002963  85.3469 274.7865 15.66465364 74297
DELLINGR (RBLE)         
1 43021U 98067NJ  19070.49912863  .00006633  00000-0  82420-4 0  9997
2 43021  51.6378 112.6239 0002892  78.9818 281.1501 15.61343800 74187
AEROCUBE 7B (OCSD B)    
1 43042U 17071F   19070.59876384  .00002504  00000-0  70480-4 0  9990
2 43042  51.6382 177.1465 0004936 152.7106 207.4139 15.40539937 70802
AEROCUBE 7C (OCSD C)    
1 43043U 17071G   19070.59912775  .00002365  00000-0  67167-4 0  9999
2 43043  51.6385 177.1613 0005045 154.1691 205.9546 15.40519327 70770
CHEFSAT                 
1 43044U 17071H   19070.41916789  .00004860  00000-0  11919-3 0  9995
2 43044  51.6386 174.5437 0004709 153.3562 206.7666 15.42616054 70792
ASGARDIA 1              
1 43049U 17071N   19070.49430979  .00002921  00000-0  80301-4 0  9998
2 43049  51.6390 177.2312 0002473 167.1681 192.9368 15.40635959 70760
ISARA                   
1 43050U 17071P   19070.46973711  .00004270  00000-0  10729-3 0  9998
2 43050  51.6379 174.8513 0002235 164.8577 195.2476 15.42202196 70793
PROPCUBE 2 (FAUNA)      
1 43052U 17071R   19070.45160264  .00002777  00000-0  76267-4 0  9990
2 43052  51.6386 176.9619 0002456 162.8421 197.2647 15.40865603 70758
CORVUS BC3              
1 43118U 18004H   19070.18298763  .00000623  00000-0  29830-4 0  9998
2 43118  97.4979 137.8209 0009167 235.3480 124.6892 15.22668678 64331
MICROMAS-2A             
1 43131U 18004W   19070.79089779  .00001447  00000-0  63209-4 0  9998
2 43131  97.4998 138.9085 0008239 234.5504 125.4965 15.23725330 64451
CICERO 7                
1 43143U 18004AJ  19070.43119771  .00001172  00000-0  51500-4 0  9994
2 43143  97.4988 138.7534 0006159 246.1101 113.9491 15.23931918 64414
GOMX-4B                 
1 43196U 18015E   19070.35488180  .00000247  00000-0  13195-4 0  9998
2 43196  97.3752 199.4067 0018109 300.8676  59.0777 15.23827362 61217
